CTC1_L_00452001-01
1 22234U 22937KR  26070.40836806  .00000000  00000+0  00000-0 0  9995
2 22234 100.0000   0.0000 0000000   0.0000   0.0000 12.41559304    11
CTC1_L_00452001-02
1 22235U 24397WV  26070.40836806  .00000000  00000+0  00000-0 0  9998
2 22235 100.0000   0.0000 0000000   0.0000  90.0000 12.41559304    11
CTC1_L_00452001-03
1 22236U 26450OO  26070.40836806  .00000000  00000+0  00000-0 0  9991
2 22236 100.0000   0.0000 0000000   0.0000 180.0000 12.41559304    12
CTC1_L_00452001-04
1 22237U 25317SJ  26070.40836806  .00000000  00000+0  00000-0 0  9993
2 22237 100.0000   0.0000 0000000   0.0000 270.0000 12.41559304    13
CTC1_L_00452002-01
1 22238U 24551EL  26070.40836806  .00000000  00000+0  00000-0 0  9993
2 22238 100.0000  12.0000 0000000   0.0000  12.0000 12.41559304    11
CTC1_L_00452002-02
1 22239U 25232MS  26070.40836806  .00000000  00000+0  00000-0 0  9991
2 22239 100.0000  12.0000 0000000   0.0000 102.0000 12.41559304    12
CTC1_L_00452002-03
1 22240U 22187IS  26070.40836806  .00000000  00000+0  00000-0 0  9999
2 22240 100.0000  12.0000 0000000   0.0000 192.0000 12.41559304    13
CTC1_L_00452002-04
1 22241U 23629XU  26070.40836806  .00000000  00000+0  00000-0 0  9992
2 22241 100.0000  12.0000 0000000   0.0000 282.0000 12.41559304    14
CTC1_L_00452003-01
1 22242U 22890AS  26070.40836806  .00000000  00000+0  00000-0 0  9992
2 22242 100.0000  24.0000 0000000   0.0000  24.0000 12.41559304    12
CTC1_L_00452003-02
1 22243U 25923LM  26070.40836806  .00000000  00000+0  00000-0 0  9993
2 22243 100.0000  24.0000 0000000   0.0000 114.0000 12.41559304    13
CTC1_L_00452003-03
1 22244U 25079RY  26070.40836806  .00000000  00000+0  00000-0 0  9996
2 22244 100.0000  24.0000 0000000   0.0000 204.0000 12.41559304    14
CTC1_L_00452003-04
1 22245U 25203SZ  26070.40836806  .00000000  00000+0  00000-0 0  9996
2 22245 100.0000  24.0000 0000000   0.0000 294.0000 12.41559304    14
CTC1_L_00452004-01
1 22246U 25321EG  26070.40836806  .00000000  00000+0  00000-0 0  9998
2 22246 100.0000  36.0000 0000000   0.0000  36.0000 12.41559304    12
CTC1_L_00452004-02
1 22247U 24747VL  26070.40836806  .00000000  00000+0  00000-0 0  9990
2 22247 100.0000  36.0000 0000000   0.0000 126.0000 12.41559304    13
CTC1_L_00452004-03
1 22248U 23066UQ  26070.40836806  .00000000  00000+0  00000-0 0  9994
2 22248 100.0000  36.0000 0000000   0.0000 216.0000 12.41559304    14
CTC1_L_00452004-04
1 22249U 22798P   26070.40836806  .00000000  00000+0  00000-0 0  9996
2 22249 100.0000  36.0000 0000000   0.0000 306.0000 12.41559304    15
CTC1_L_00452005-01
1 22250U 22371IY  26070.40836806  .00000000  00000+0  00000-0 0  9995
2 22250 100.0000  48.0000 0000000   0.0000  48.0000 12.41559304    13
CTC1_L_00452005-02
1 22251U 23083TQ  26070.40836806  .00000000  00000+0  00000-0 0  9997
2 22251 100.0000  48.0000 0000000   0.0000 138.0000 12.41559304    14
CTC1_L_00452005-03
1 22252U 24091SJ  26070.40836806  .00000000  00000+0  00000-0 0  9998
2 22252 100.0000  48.0000 0000000   0.0000 228.0000 12.41559304    15
CTC1_L_00452005-04
1 22253U 22926KX  26070.40836806  .00000000  00000+0  00000-0 0  9994
2 22253 100.0000  48.0000 0000000   0.0000 318.0000 12.41559304    16
CTC1_L_00452006-01
1 22254U 22155WT  26070.40836806  .00000000  00000+0  00000-0 0  9999
2 22254 100.0000  60.0000 0000000   0.0000  60.0000 12.41559304    15
CTC1_L_00452006-02
1 22255U 24769ZR  26070.40836806  .00000000  00000+0  00000-0 0  9993
2 22255 100.0000  60.0000 0000000   0.0000 150.0000 12.41559304    16
CTC1_L_00452006-03
1 22256U 23888XY  26070.40836806  .00000000  00000+0  00000-0 0  9995
2 22256 100.0000  60.0000 0000000   0.0000 240.0000 12.41559304    17
CTC1_L_00452006-04
1 22257U 25606XN  26070.40836806  .00000000  00000+0  00000-0 0  9996
2 22257 100.0000  60.0000 0000000   0.0000 330.0000 12.41559304    18
CTC1_L_00452007-01
1 22258U 26047SV  26070.40836806  .00000000  00000+0  00000-0 0  9997
2 22258 100.0000  72.0000 0000000   0.0000  72.0000 12.41559304    15
CTC1_L_00452007-02
1 22259U 23355GQ  26070.40836806  .00000000  00000+0  00000-0 0  9997
2 22259 100.0000  72.0000 0000000   0.0000 162.0000 12.41559304    16
CTC1_L_00452007-03
1 22260U 24456ZU  26070.40836806  .00000000  00000+0  00000-0 0  9992
2 22260 100.0000  72.0000 0000000   0.0000 252.0000 12.41559304    18
CTC1_L_00452007-04
1 22261U 26507WN  26070.40836806  .00000000  00000+0  00000-0 0  9992
2 22261 100.0000  72.0000 0000000   0.0000 342.0000 12.41559304    19
CTC1_L_00452008-01
1 22262U 26461LJ  26070.40836806  .00000000  00000+0  00000-0 0  9992
2 22262 100.0000  84.0000 0000000   0.0000  84.0000 12.41559304    16
CTC1_L_00452008-02
1 22263U 25877LF  26070.40836806  .00000000  00000+0  00000-0 0  9993
2 22263 100.0000  84.0000 0000000   0.0000 174.0000 12.41559304    17
CTC1_L_00452008-03
1 22264U 24942KZ  26070.40836806  .00000000  00000+0  00000-0 0  9996
2 22264 100.0000  84.0000 0000000   0.0000 264.0000 12.41559304    18
CTC1_L_00452008-04
1 22265U 22139NW  26070.40836806  .00000000  00000+0  00000-0 0  9993
2 22265 100.0000  84.0000 0000000   0.0000 354.0000 12.41559304    19
CTC1_L_00452009-01
1 22266U 23500CX  26070.40836806  .00000000  00000+0  00000-0 0  9997
2 22266 100.0000  96.0000 0000000   0.0000  96.0000 12.41559304    16
CTC1_L_00452009-02
1 22267U 26351CY  26070.40836806  .00000000  00000+0  00000-0 0  9995
2 22267 100.0000  96.0000 0000000   0.0000 186.0000 12.41559304    17
CTC1_L_00452009-03
1 22268U 25544IE  26070.40836806  .00000000  00000+0  00000-0 0  9999
2 22268 100.0000  96.0000 0000000   0.0000 276.0000 12.41559304    18
CTC1_L_00452009-04
1 22269U 23830XI  26070.40836806  .00000000  00000+0  00000-0 0  9996
2 22269 100.0000  96.0000 0000000   0.0000   6.0000 12.41559304    10
CTC1_L_00452010-01
1 22270U 22005PB  26070.40836806  .00000000  00000+0  00000-0 0  9991
2 22270 100.0000 108.0000 0000000   0.0000 108.0000 12.41559304    19
CTC1_L_00452010-02
1 22271U 24808UC  26070.40836806  .00000000  00000+0  00000-0 0  9995
2 22271 100.0000 108.0000 0000000   0.0000 198.0000 12.41559304    19
CTC1_L_00452010-03
1 22272U 25889UI  26070.40836806  .00000000  00000+0  00000-0 0  9996
2 22272 100.0000 108.0000 0000000   0.0000 288.0000 12.41559304    10
CTC1_L_00452010-04
1 22273U 22534SG  26070.40836806  .00000000  00000+0  00000-0 0  9991
2 22273 100.0000 108.0000 0000000   0.0000  18.0000 12.41559304    12
CTC1_L_00452011-01
1 22274U 23730OG  26070.40836806  .00000000  00000+0  00000-0 0  9991
2 22274 100.0000 120.0000 0000000   0.0000 120.0000 12.41559304    11
CTC1_L_00452011-02
1 22275U 22858ZD  26070.40836806  .00000000  00000+0  00000-0 0  9992
2 22275 100.0000 120.0000 0000000   0.0000 210.0000 12.41559304    12
CTC1_L_00452011-03
1 22276U 24483YQ  26070.40836806  .00000000  00000+0  00000-0 0  9999
2 22276 100.0000 120.0000 0000000   0.0000 300.0000 12.41559304    13
CTC1_L_00452011-04
1 22277U 23601LU  26070.40836806  .00000000  00000+0  00000-0 0  9991
2 22277 100.0000 120.0000 0000000   0.0000  30.0000 12.41559304    14
CTC1_L_00452012-01
1 22278U 26832RX  26070.40836806  .00000000  00000+0  00000-0 0  9991
2 22278 100.0000 132.0000 0000000   0.0000 132.0000 12.41559304    11
CTC1_L_00452012-02
1 22279U 25663VV  26070.40836806  .00000000  00000+0  00000-0 0  9993
2 22279 100.0000 132.0000 0000000   0.0000 222.0000 12.41559304    12
CTC1_L_00452012-03
1 22280U 26384QV  26070.40836806  .00000000  00000+0  00000-0 0  9996
2 22280 100.0000 132.0000 0000000   0.0000 312.0000 12.41559304    14
CTC1_L_00452012-04
1 22281U 25843T   26070.40836806  .00000000  00000+0  00000-0 0  9996
2 22281 100.0000 132.0000 0000000   0.0000  42.0000 12.41559304    15
CTC1_L_00452013-01
1 22282U 24593JI  26070.40836806  .00000000  00000+0  00000-0 0  9998
2 22282 100.0000 144.0000 0000000   0.0000 144.0000 12.41559304    12
CTC1_L_00452013-02
1 22283U 24180ND  26070.40836806  .00000000  00000+0  00000-0 0  9991
2 22283 100.0000 144.0000 0000000   0.0000 234.0000 12.41559304    13
CTC1_L_00452013-03
1 22284U 26123TV  26070.40836806  .00000000  00000+0  00000-0 0  9991
2 22284 100.0000 144.0000 0000000   0.0000 324.0000 12.41559304    14
CTC1_L_00452013-04
1 22285U 24914LW  26070.40836806  .00000000  00000+0  00000-0 0  9998
2 22285 100.0000 144.0000 0000000   0.0000  54.0000 12.41559304    15
CTC1_L_00452014-01
1 22286U 26539WV  26070.40836806  .00000000  00000+0  00000-0 0  9994
2 22286 100.0000 156.0000 0000000   0.0000 156.0000 12.41559304    12
CTC1_L_00452014-02
1 22287U 22658PI  26070.40836806  .00000000  00000+0  00000-0 0  9993
2 22287 100.0000 156.0000 0000000   0.0000 246.0000 12.41559304    13
CTC1_L_00452014-03
1 22288U 23917PM  26070.40836806  .00000000  00000+0  00000-0 0  9993
2 22288 100.0000 156.0000 0000000   0.0000 336.0000 12.41559304    14
CTC1_L_00452014-04
1 22289U 25432QJ  26070.40836806  .00000000  00000+0  00000-0 0  9998
2 22289 100.0000 156.0000 0000000   0.0000  66.0000 12.41559304    15
CTC1_L_00452015-01
1 22290U 24104DA  26070.40836806  .00000000  00000+0  00000-0 0  9995
2 22290 100.0000 168.0000 0000000   0.0000 168.0000 12.41559304    13
CTC1_L_00452015-02
1 22291U 24208HQ  26070.40836806  .00000000  00000+0  00000-0 0  9991
2 22291 100.0000 168.0000 0000000   0.0000 258.0000 12.41559304    14
CTC1_L_00452015-03
1 22292U 26831NN  26070.40836806  .00000000  00000+0  00000-0 0  9996
2 22292 100.0000 168.0000 0000000   0.0000 348.0000 12.41559304    15
CTC1_L_00452015-04
1 22293U 25316TX  26070.40836806  .00000000  00000+0  00000-0 0  9994
2 22293 100.0000 168.0000 0000000   0.0000  78.0000 12.41559304    16
CTC1_L_00452016-01
1 22294U 23511UP  26070.40836806  .00000000  00000+0  00000-0 0  9990
2 22294 100.0000 180.0000 0000000   0.0000 180.0000 12.41559304    15
CTC1_L_00452016-02
1 22295U 23129JF  26070.40836806  .00000000  00000+0  00000-0 0  9996
2 22295 100.0000 180.0000 0000000   0.0000 270.0000 12.41559304    16
